NORAD_CAT_ID,OBJECT_NAME,OBJECT_TYPE,EPOCH,MEAN_MOTION,ECCENTRICITY,INCLINATION,RA_OF_ASC_NODE,ARG_OF_PERICENTER,MEAN_ANOMALY,BSTAR,MEAN_MOTION_DOT,MEAN_MOTION_DDOT,TLE_LINE0,TLE_LINE1,TLE_LINE2,SEMIMAJOR_AXIS,PERIOD,APOGEE,PERIGEE,DECAYED
51975.0,STARLINK-3674,PAYLOAD,2024-04-19 14:56:06,15.06433452,0.0001526,53.0543,240.1796,108.8082,251.3073,0.00083442,0.0001218,0.0,0 STARLINK-3674,1 51975U 22025V   24110.62230024  .00012180  00000-0  83442-3 0  9991,2 51975  53.0543 240.1796 0001526 108.8082 251.3073 15.06433452118238,6925.246,95.59,548.168,546.054,0.0
51975.0,STARLINK-3674,PAYLOAD,2024-04-20 13:13:41,15.06395826,0.0001457,53.0544,236.0071,113.0106,247.1036,-2.7906e-05,-6.97e-06,0.0,0 STARLINK-3674,1 51975U 22025V   24111.55116960 -.00000697  00000-0 -27906-4 0  9992,2 51975  53.0544 236.0071 0001457 113.0106 247.1036 15.06395826118376,6925.361,95.592,548.235,546.217,0.0
51975.0,STARLINK-3674,PAYLOAD,2024-04-21 13:06:46,15.06400097,0.0001521,53.0546,231.5431,85.8004,274.3159,-3.4992e-05,-8.03e-06,0.0,0 STARLINK-3674,1 51975U 22025V   24112.54637653 -.00000803  00000-0 -34992-4 0  9991,2 51975  53.0546 231.5431 0001521  85.8004 274.3159 15.06400097117412,6925.348,95.592,548.267,546.16,0.0
51975.0,STARLINK-3674,PAYLOAD,2024-04-22 17:46:30,15.06395967,0.000188,53.0541,226.1705,117.5154,242.6027,0.00025745,3.555e-05,0.0,0 STARLINK-3674,1 51975U 22025V   24113.74062702  .00003555  00000-0  25745-3 0  9991,2 51975  53.0541 226.1705 0001880 117.5154 242.6027 15.06395967118702,6925.361,95.592,548.528,545.924,0.0
51975.0,STARLINK-3674,PAYLOAD,2024-04-23 14:28:30,15.06410037,0.0001633,53.0547,222.3082,85.0637,275.0538,0.00044602,6.37e-05,0.0,0 STARLINK-3674,1 51975U 22025V   24114.60313452  .00006370  00000-0  44602-3 0  9999,2 51975  53.0547 222.3082 0001633  85.0637 275.0538 15.06410037117729,6925.318,95.592,548.314,546.052,0.0
51975.0,STARLINK-3674,PAYLOAD,2024-04-24 12:46:04,15.06396178,0.0001908,53.0558,218.14,71.2536,288.866,3.9659e-05,3.09e-06,0.0,0 STARLINK-3674,1 51975U 22025V   24115.53199919  .00000309  00000-0  39659-4 0  9995,2 51975  53.0558 218.1400 0001908  71.2536 288.8660 15.06396178118973,6925.36,95.592,548.547,545.904,0.0
51975.0,STARLINK-3674,PAYLOAD,2024-04-24 14:21:36,15.06398713,0.0001759,53.0547,217.8361,76.0711,284.0474,7.5526e-05,8.43e-06,0.0,0 STARLINK-3674,1 51975U 22025V   24115.59834289  .00000843  00000-0  75526-4 0  9993,2 51975  53.0547 217.8361 0001759  76.0711 284.0474 15.06398713117871,6925.353,95.592,548.436,545.999,0.0
51975.0,STARLINK-3674,PAYLOAD,2024-04-25 14:14:42,15.06407655,0.0002464,53.0558,213.3743,58.8868,301.2363,0.0003179,4.457e-05,0.0,0 STARLINK-3674,1 51975U 22025V   24116.59354722  .00004457  00000-0  31790-3 0  9992,2 51975  53.0558 213.3743 0002464  58.8868 301.2363 15.06407655118026,6925.325,95.592,548.896,545.484,0.0
51975.0,STARLINK-3674,PAYLOAD,2024-04-26 12:32:15,15.06410023,0.0001711,53.0535,209.2054,80.0485,280.0697,0.00026811,3.715e-05,0.0,0 STARLINK-3674,1 51975U 22025V   24117.52239679  .00003715  00000-0  26811-3 0  9993,2 51975  53.0535 209.2054 0001711  80.0485 280.0697 15.06410023118168,6925.318,95.592,548.368,545.998,0.0
51975.0,STARLINK-3674,PAYLOAD,2024-04-27 12:25:19,15.06421981,0.0001775,53.0535,204.737,103.9681,256.1506,-5.0801e-06,-3.57e-06,0.0,0 STARLINK-3674,1 51975U 22025V   24118.51758638 -.00000357  00000-0 -50801-5 0  9993,2 51975  53.0535 204.7370 0001775 103.9681 256.1506 15.06421981118317,6925.281,95.591,548.375,545.917,0.0
51975.0,STARLINK-3674,PAYLOAD,2024-04-28 12:18:26,15.06384035,0.0001584,53.0535,200.271,86.5816,273.5354,-0.00020849,-3.384e-05,0.0,0 STARLINK-3674,1 51975U 22025V   24119.51281052 -.00003384  00000-0 -20849-3 0  9995,2 51975  53.0535 200.2710 0001584  86.5816 273.5354 15.06384035119571,6925.397,95.593,548.359,546.166,0.0
51975.0,STARLINK-3674,PAYLOAD,2024-04-28 21:51:38,15.06422352,0.0001431,53.0544,198.4822,89.2128,270.9025,0.00036133,5.108e-05,0.0,0 STARLINK-3674,1 51975U 22025V   24119.91086696  .00005108  00000-0  36133-3 0  9993,2 51975  53.0544 198.4822 0001431  89.2128 270.9025 15.06422352118525,6925.28,95.591,548.136,546.154,0.0
51975.0,STARLINK-3674,PAYLOAD,2024-04-29 05:49:19,15.06429695,0.0001436,53.0544,196.9912,90.6047,269.5106,0.00028548,3.977e-05,0.0,0 STARLINK-3674,1 51975U 22025V   24120.24258417  .00003977  00000-0  28548-3 0  9996,2 51975  53.0544 196.9912 0001436  90.6047 269.5106 15.06429695119688,6925.258,95.59,548.117,546.128,0.0
51975.0,STARLINK-3674,PAYLOAD,2024-04-29 12:11:32,15.06377702,0.000152,53.055,195.8025,101.2167,258.8993,-0.00016619,-2.754e-05,0.0,0 STARLINK-3674,1 51975U 22025V   24120.50801512 -.00002754  00000-0 -16619-3 0  9995,2 51975  53.0550 195.8025 0001520 101.2167 258.8993 15.06377702119725,6925.417,95.594,548.335,546.229,0.0
51975.0,STARLINK-3674,PAYLOAD,2024-04-29 21:44:46,15.06387449,0.000147,53.0547,194.0145,98.7322,261.3834,-0.00018895,-3.094e-05,0.0,0 STARLINK-3674,1 51975U 22025V   24120.90609193 -.00003094  00000-0 -18895-3 0  9996,2 51975  53.0547 194.0145 0001470  98.7322 261.3834 15.06387449118677,6925.387,95.593,548.27,546.234,0.0
51975.0,STARLINK-3674,PAYLOAD,2024-04-30 12:04:37,15.0638604,0.0001396,53.0542,191.3343,88.9834,271.1315,0.00019255,2.587e-05,0.0,0 STARLINK-3674,1 51975U 22025V   24121.50321683  .00002587  00000-0  19255-3 0  9993,2 51975  53.0542 191.3343 0001396  88.9834 271.1315 15.06386040119870,6925.391,95.593,548.223,546.29,0.0
51975.0,STARLINK-3674,PAYLOAD,2024-04-30 21:37:51,15.06394701,0.0001399,53.0543,189.5468,86.3529,273.762,0.00018911,2.536e-05,0.0,0 STARLINK-3674,1 51975U 22025V   24121.90129483  .00002536  00000-0  18911-3 0  9993,2 51975  53.0543 189.5468 0001399  86.3529 273.7620 15.06394701118828,6925.365,95.592,548.199,546.261,0.0
51975.0,STARLINK-3674,PAYLOAD,2024-05-01 03:59:56,15.06499035,0.0001257,53.054,188.3547,59.3468,300.7645,-0.0018222,-0.00027392,0.0,0 STARLINK-3674,1 51975U 22025V   24122.16662898 -.00027392  00000-0 -18222-2 0  9997,2 51975  53.0540 188.3547 0001257  59.3468 300.7645 15.06499035119976,6925.045,95.586,547.781,546.04,0.0
51975.0,STARLINK-3674,PAYLOAD,2024-05-01 19:55:26,15.0637223,0.0001577,53.0545,185.377,94.2967,265.8202,8.2985e-05,9.54e-06,0.0,0 STARLINK-3674,1 51975U 22025V   24122.83016665  .00000954  00000-0  82985-4 0  9998,2 51975  53.0545 185.3770 0001577  94.2967 265.8202 15.06372230120073,6925.434,95.594,548.391,546.207,0.0
51975.0,STARLINK-3674,PAYLOAD,2024-05-01 21:30:59,15.06369505,0.000162,53.0542,185.0793,97.8864,262.2309,0.00011907,1.491e-05,0.0,0 STARLINK-3674,1 51975U 22025V   24122.89651999  .00001491  00000-0  11907-3 0  9991,2 51975  53.0542 185.0793 0001620  97.8864 262.2309 15.06369505118972,6925.442,95.594,548.429,546.185,0.0
51975.0,STARLINK-3674,PAYLOAD,2024-05-02 13:26:22,15.06383063,0.0001753,53.0534,182.1003,97.5183,262.6005,4.9371e-05,4.54e-06,0.0,0 STARLINK-3674,1 51975U 22025V   24123.55998684  .00000454  00000-0  49371-4 0  9995,2 51975  53.0534 182.1003 0001753  97.5183 262.6005 15.06383063119077,6925.4,95.593,548.479,546.051,0.0
51975.0,STARLINK-3674,PAYLOAD,2024-05-02 21:24:04,15.06394633,0.0001765,53.0531,180.6127,95.8003,264.3187,0.00023262,3.184e-05,0.0,0 STARLINK-3674,1 51975U 22025V   24123.89171822  .00003184  00000-0  23262-3 0  9992,2 51975  53.0531 180.6127 0001765  95.8003 264.3187 15.06394633120234,6925.365,95.592,548.452,546.008,0.0
51975.0,STARLINK-3674,PAYLOAD,2024-05-03 10:08:23,15.06420748,0.000187,53.0526,178.2301,95.1298,264.9904,0.0011767,0.00017299,0.0,0 STARLINK-3674,1 51975U 22025V   24124.42249195  .00017299  00000-0  11767-2 0  9999,2 51975  53.0526 178.2301 0001870  95.1298 264.9904 15.06420748120310,6925.285,95.591,548.445,545.855,0.0
51975.0,STARLINK-3674,PAYLOAD,2024-05-04 03:39:18,15.06411613,0.0001894,53.0531,174.9524,98.2012,261.9192,0.00011442,1.424e-05,0.0,0 STARLINK-3674,1 51975U 22025V   24125.15230202  .00001424  00000-0  11442-3 0  9993,2 51975  53.0531 174.9524 0001894  98.2012 261.9192 15.06411613120429,6925.313,95.591,548.49,545.866,0.0
51975.0,STARLINK-3674,PAYLOAD,2024-05-05 03:32:24,15.06412722,0.0001789,53.0531,170.4848,88.0398,272.0796,0.00046368,6.634e-05,0.0,0 STARLINK-3674,1 51975U 22025V   24126.14750010  .00006634  00000-0  46368-3 0  9990,2 51975  53.0531 170.4848 0001789  88.0398 272.0796 15.06412722120577,6925.31,95.591,548.414,545.936,0.0
51975.0,STARLINK-3674,PAYLOAD,2024-05-05 09:54:33,15.06418039,0.0001783,53.0527,169.2938,89.7308,270.3885,0.00031781,4.458e-05,0.0,0 STARLINK-3674,1 51975U 22025V   24126.41288274  .00004458  00000-0  31781-3 0  9993,2 51975  53.0527 169.2938 0001783  89.7308 270.3885 15.06418039119509,6925.293,95.591,548.393,545.923,0.0
51975.0,STARLINK-3674,PAYLOAD,2024-05-05 19:27:47,15.06413096,0.0001813,53.0527,167.5063,90.2715,269.8482,0.0001366,1.754e-05,0.0,0 STARLINK-3674,1 51975U 22025V   24126.81096203  .00001754  00000-0  13660-3 0  9998,2 51975  53.0527 167.5063 0001813  90.2715 269.8482 15.06413096119562,6925.308,95.591,548.429,545.918,0.0
51975.0,STARLINK-3674,PAYLOAD,2024-05-06 11:23:10,15.06409306,0.0001895,53.0534,164.5291,92.2129,267.9077,0.00017213,2.284e-05,0.0,0 STARLINK-3674,1 51975U 22025V   24127.47442946  .00002284  00000-0  17213-3 0  9997,2 51975  53.0534 164.5291 0001895  92.2129 267.9077 15.06409306120774,6925.32,95.592,548.497,545.873,0.0
51975.0,STARLINK-3674,PAYLOAD,2024-05-06 19:20:52,15.06408123,0.0001875,53.0532,163.0399,92.0188,268.1016,9.9699e-05,1.204e-05,0.0,0 STARLINK-3674,1 51975U 22025V   24127.80616175  .00001204  00000-0  99699-4 0  9991,2 51975  53.0532 163.0399 0001875  92.0188 268.1016 15.06408123119710,6925.324,95.592,548.487,545.89,0.0
51975.0,STARLINK-3674,PAYLOAD,2024-05-07 09:40:43,15.06406769,0.0002107,53.0546,160.3597,98.9975,261.1253,-1.2695e-05,-4.71e-06,0.0,0 STARLINK-3674,1 51975U 22025V   24128.40328616 -.00000471  00000-0 -12695-4 0  9996,2 51975  53.0546 160.3597 0002107  98.9975 261.1253 15.06406769120917,6925.328,95.592,548.652,545.734,0.0
